{"type":"FeatureCollection","crs":{"type":"name","properties":{"name":"EPSG:4326"}},"features":[{"type":"Feature","geometry":{"type":"LineString","coordinates":[[-77.4492689892987,39.6336886128265],[-77.4491754315585,39.6336622196206],[-77.4491752330308,39.6336575705411],[-77.4491738388455,39.6336566559453],[-77.4491753426252,39.6336552577622],[-77.4489691002158,39.6335634307645],[-77.4484402808726,39.6333092733443],[-77.448023520073,39.6330834476361],[-77.4476492262301,39.6329649759635],[-77.4475893175838,39.6329698997477],[-77.4475085177172,39.632938345874],[-77.4473688090293,39.6329247208835],[-77.4471762569448,39.6329291264865],[-77.4470540222858,39.6329529754054],[-77.4468464449798,39.632860690864],[-77.4467011352961,39.6326692819097],[-77.4465383291255,39.6325567745582],[-77.446371989881,39.6324319156125],[-77.4462523028441,39.6323589936058],[-77.4459927112866,39.6322260522095],[-77.4457447511153,39.6321498762509],[-77.4454186896167,39.6320603185764],[-77.4452339169425,39.6319953426981],[-77.4450945990217,39.6319821167159],[-77.4449655730992,39.6320125142629],[-77.4447139154622,39.6318743826704],[-77.4445216679066,39.6316558097573],[-77.4441596881695,39.6314081293455],[-77.4437946137364,39.6310890253291],[-77.4434863990675,39.6305814544928],[-77.4433815198598,39.6304093870947],[-77.4432023679443,39.6299057099307],[-77.4431763994461,39.6296735210799],[-77.4432654108126,39.6291868932066],[-77.4431412717252,39.6289738557906],[-77.4431666545219,39.62847343177],[-77.4431850286627,39.6284496290465],[-77.4432873171292,39.6283171111796],[-77.4434451017172,39.6281074350199],[-77.4434724114002,39.6280711429881],[-77.4435562799117,39.6275831429007],[-77.4434367195373,39.627468964668],[-77.4432587120756,39.6274984273805],[-77.4431843360616,39.6275107388509],[-77.4431560966223,39.6274911819192],[-77.4428186319095,39.6272574634963],[-77.4426263448279,39.6270158248684],[-77.4426056620168,39.6269898338748],[-77.4426216619104,39.6269475563701],[-77.4426013878327,39.6269175316046],[-77.4425957149717,39.626884731635],[-77.4426142418261,39.6268520167529],[-77.4426331450747,39.6268255337599],[-77.4426345680061,39.6267940047596],[-77.4426334280439,39.6267661213464],[-77.4426382484038,39.6267365448511],[-77.4426355130337,39.6267235877033],[-77.4424153332627,39.6266814297341],[-77.442346251919,39.6266933774122],[-77.4417262895071,39.6266522316705],[-77.4415067466416,39.6264959297983],[-77.4414626366662,39.6265064259046],[-77.4414247565073,39.626504739747],[-77.441370751589,39.6264841176984],[-77.4413297048687,39.6264780296782],[-77.4412870250113,39.6264783133568],[-77.4412449596015,39.6264763947205],[-77.4412059179209,39.6264705364102],[-77.441141263475,39.6264670084161],[-77.4411062228907,39.6264794376929],[-77.4410336686601,39.6264605163252],[-77.4410049117913,39.6264388757872],[-77.4409769454398,39.6264170297483],[-77.4409619687274,39.6263882826919],[-77.4409183186895,39.6263752286129],[-77.4408861230697,39.6263505589083]]},"properties":{"TRLNAME":"TR-1 Chimney Rock/Wolf Rock Trail","TRLALTNAME":"TR-2 Crows Nest Trail / Gateway Trail","MAPLABEL":"Chimney Rock/Wolf Rock Trail and Gateway Trail","UNITCODE":"CATO"}},{"type":"Feature","geometry":{"type":"LineString","coordinates":[[-77.4390203455807,39.6275683371861],[-77.4390038722751,39.6275796191146],[-77.4389575605289,39.6275825651741],[-77.4389013978573,39.6275742749706],[-77.4387740419029,39.6275815128124],[-77.438621275304,39.6275822496732],[-77.4384654607213,39.6275989497739],[-77.438283251839,39.6276163528286],[-77.4381515130042,39.6275957546354],[-77.4379888775136,39.6275088347729],[-77.437766504955,39.627487362],[-77.4376547644151,39.6274487601161],[-77.4376120531166,39.6274214297865],[-77.4375407161032,39.6273531720668],[-77.4373670573858,39.6272754768849],[-77.4373287029164,39.6272700690634],[-77.4372339028061,39.6272136999717],[-77.4371374345244,39.6272145108688],[-77.4370772608751,39.6271620862098],[-77.4369947398365,39.6270529691746],[-77.4369747837625,39.6270428405466],[-77.4369513610897,39.62705486773],[-77.436953570047,39.6271848688354],[-77.4369333534615,39.62730046107],[-77.4369629125259,39.6273335147664],[-77.4370219255519,39.6274466837559],[-77.4370247615333,39.627540304637],[-77.4370243869358,39.627573733914],[-77.4370742991296,39.6277145620734],[-77.4370607696031,39.6278215913381],[-77.4369364930734,39.6277875360239],[-77.4368755693309,39.6277715050226],[-77.4367924374379,39.6277265787617],[-77.4367371353523,39.6277112251034],[-77.436589598745,39.6276491261597],[-77.4365658724417,39.6276249446902],[-77.4363619252278,39.6275653323154],[-77.4360413614187,39.6274396762992],[-77.4358639612181,39.627346579043],[-77.4356554272063,39.6272418122206],[-77.4355845761816,39.6272372118339],[-77.4355618739577,39.6272156268902],[-77.435320921544,39.6269784459902]]},"properties":{"TRLNAME":"TR-1 Chimney Rock/Wolf Rock Trail","TRLALTNAME":"TR-2 Crows Nest Trail / Gateway Trail","MAPLABEL":"Chimney Rock/Wolf Rock Trail","UNITCODE":"CATO"}},{"type":"Feature","geometry":{"type":"MultiLineString","coordinates":[[[-77.4330593634089,39.6263714051725],[-77.4330261976086,39.626390213093],[-77.4329922960881,39.6264483631128],[-77.4328694963887,39.6265870666681],[-77.4328485737275,39.6266412671718],[-77.43280249195,39.626677160037],[-77.4327885033844,39.6267155831502],[-77.432768848246,39.6267636332874],[-77.4327113560678,39.6268372088062],[-77.4326799976779,39.6268785827633],[-77.4326345007037,39.626970837922],[-77.4326487300178,39.6269737037477],[-77.4326421687229,39.6270077338624],[-77.4325930416567,39.6270570631076],[-77.4325496898594,39.6271272411216],[-77.4325646513004,39.627160157906],[-77.4325964777126,39.6272023667835],[-77.4325795821988,39.627251854333],[-77.4325170513702,39.6273255441865],[-77.4324508167876,39.6273466883617],[-77.432391289027,39.6274046742917],[-77.432373025379,39.6274115482172],[-77.4323243618434,39.627436195403],[-77.4322894533115,39.6274448032003],[-77.4322542663018,39.6274562449754],[-77.4322097152536,39.6274647448356],[-77.4321721962174,39.6274673380365],[-77.4320986915693,39.6275111484491],[-77.432011193864,39.6276117849856],[-77.4319558666257,39.6276578183408],[-77.4318954171936,39.6277150699183],[-77.4317646512343,39.6277395301866],[-77.4316576295446,39.6278320865514],[-77.4316334451005,39.6278593565247],[-77.4315755396973,39.6279218102166],[-77.4315344274,39.628004949107],[-77.43154247361,39.6280875496125],[-77.4315732597731,39.6281840914445],[-77.4315852127563,39.628266319504],[-77.4316339014447,39.6283653054996],[-77.4316581487708,39.628420823333],[-77.4315942174687,39.6285842402826],[-77.4315973813351,39.6286028912372],[-77.4316192768718,39.6286215172792],[-77.431611937636,39.6286619526756],[-77.4315980883092,39.6287238106291],[-77.4315822842484,39.628805164208],[-77.4315876355126,39.6288207217268],[-77.4315890207148,39.6288618122126],[-77.4315788266329,39.6289096712857],[-77.4315319821858,39.6289609807029],[-77.4314921428013,39.629011029488],[-77.4314572944564,39.6290443992453],[-77.4314212765051,39.629148806332],[-77.4313338174274,39.6292130217493],[-77.4313194515694,39.6292431977305],[-77.4312980177667,39.6292559136352],[-77.4312715390254,39.6293069052269],[-77.431238677754,39.6293651884021],[-77.4312376042672,39.6294312218519],[-77.4312326698213,39.6295416406924],[-77.4312204464453,39.6295768367256],[-77.4311904355283,39.629619372766],[-77.4311444965829,39.6296729198473],[-77.4310939735347,39.6297662616614],[-77.4310916882206,39.6298105756805],[-77.4310798798662,39.6298610714878],[-77.4310363016935,39.6299211267535],[-77.4310711500383,39.6299910368787],[-77.431121053249,39.6300218919306],[-77.4311860957671,39.6300467990191],[-77.4312559092377,39.6300589716634],[-77.4313187634598,39.6300805688655],[-77.431462028578,39.6301169560122],[-77.431466242575,39.6301257980175],[-77.4315778151299,39.6301479459212],[-77.4316961457107,39.6301009988881],[-77.4317660292499,39.6300928335216],[-77.4318789582609,39.6301068098444],[-77.4319560040679,39.6300886138492],[-77.4320178135493,39.6300972157816],[-77.4320777311788,39.6301227718102],[-77.4322339482067,39.6301337163851],[-77.4323593215793,39.6301986179071],[-77.432406372639,39.6302069569184],[-77.4324823988581,39.6302382857992],[-77.432540916014,39.6302292549301],[-77.432676724217,39.6302561378999],[-77.43275189524,39.6302451338443],[-77.4328308014579,39.6302304483914],[-77.4328576799495,39.6302121528006],[-77.432870842065,39.6301973234334],[-77.4328992036752,39.6301806336459],[-77.4329323119833,39.6301632858933],[-77.4329661245706,39.630144294963],[-77.4329896900754,39.6301173337693],[-77.4330171003697,39.6300897346673],[-77.4330463297524,39.6300557717955],[-77.4330607782555,39.6300279007666],[-77.433077855229,39.629990043362],[-77.4330910910064,39.6299628406475],[-77.4330981284083,39.6299332336929],[-77.4331129658819,39.6298952247181],[-77.433120143421,39.6298554168725],[-77.4331250365444,39.6298185065377],[-77.4331222535636,39.6297906997567],[-77.433140646569,39.6297669535277],[-77.4331648920986,39.6297467766295],[-77.4331997440366,39.629718028881],[-77.4332262012184,39.6296898802773],[-77.4332372585812,39.6296598234922]],[[-77.4332372585812,39.6296598234922],[-77.4331917912514,39.6296465908366],[-77.433151698542,39.6296341552101],[-77.4331105934312,39.6296122783541],[-77.4330741703397,39.6295877052815],[-77.4330415354437,39.6295746158289],[-77.4330061103805,39.6295691203198],[-77.4329735446548,39.6295546837961],[-77.4329404650928,39.6295426957919],[-77.4329077439586,39.6295282717162],[-77.4328781570464,39.629498340781],[-77.4328438530806,39.6294768381832],[-77.4328171982695,39.6294575647819],[-77.4327843127436,39.629445353287],[-77.4327423084192,39.6294157163606],[-77.4327235363248,39.6293855958043],[-77.4327378779283,39.6293193547498],[-77.4328010052382,39.6292651964726],[-77.4328954702769,39.6292700713973],[-77.4329486990507,39.6293068076732],[-77.4329969781073,39.6293273686878],[-77.4330818608169,39.6294006668081],[-77.4331218412369,39.6294396771898],[-77.4332060798543,39.6295178687788],[-77.4332532180506,39.6295965252146],[-77.4333056230693,39.6296708366351],[-77.4333557598419,39.6297224595954],[-77.4333213480783,39.6298204638258],[-77.4332730366824,39.6299592138948],[-77.4332703588045,39.6300827627634],[-77.4332501035915,39.6301412846694],[-77.4332221462232,39.6302799566065],[-77.4332152238056,39.630319986987],[-77.4332181469235,39.6303565428217],[-77.4332415085108,39.6303980253719],[-77.4332271166017,39.6304905089944],[-77.4332402059537,39.6305804879671],[-77.4332624383586,39.6307210007464],[-77.4332938156132,39.6307616915944],[-77.4333293772203,39.6307905758968],[-77.4334202031838,39.63083258884],[-77.4335347222128,39.6309223618868],[-77.4336251645956,39.6309578588662],[-77.4337360202949,39.6309426048602],[-77.4338883089901,39.6309221446445],[-77.4340204844061,39.6309454476902],[-77.4340658376498,39.6309747878478],[-77.4340779119056,39.6310164824263],[-77.434099937698,39.6310541130332],[-77.4341008602678,39.6310982885486],[-77.4341535311879,39.6311371270855],[-77.4341816098287,39.6311882079233],[-77.4342684760184,39.631294217561],[-77.4343534737122,39.6313446050487],[-77.4343718703109,39.631378377029],[-77.4344876856089,39.6314745766467],[-77.4345114208954,39.6315007050174],[-77.43452927581,39.6315170015163],[-77.434558953452,39.6315470180593],[-77.4347182319384,39.6316325595312],[-77.4347663133657,39.6316632498833],[-77.4349381305368,39.6318035702059],[-77.435011846289,39.6318773617557],[-77.4351426841135,39.6319451902196],[-77.4353396406379,39.632060254235],[-77.4355085257079,39.6321042609901],[-77.4355061074432,39.6321079236062],[-77.4357110589736,39.6321212920839],[-77.4358080087523,39.6321591040443],[-77.4361723645332,39.6322061790552],[-77.4362924603035,39.6321448057377],[-77.4364734286125,39.6320611501721],[-77.4365974149863,39.6319886089805],[-77.4368041640456,39.6319281258739],[-77.4370114224496,39.6318519468199],[-77.4370689640351,39.6318342660168],[-77.4370696584329,39.6318342777782],[-77.4372126810059,39.6318173427803],[-77.4374185443263,39.6318470208806],[-77.4375748233379,39.6317635337654],[-77.4376492945733,39.6317163166247],[-77.4377637120927,39.6316429794469],[-77.437836578937,39.6316245929058],[-77.4379123401531,39.6316644965921],[-77.4379689600672,39.6316688925895],[-77.4380152529487,39.6317015858222],[-77.4380317370342,39.6317152684769],[-77.4380100013975,39.631773977876],[-77.4380259060696,39.6318176070654],[-77.4380281240101,39.6318190004427],[-77.4380268439108,39.6319329424961],[-77.4381189068544,39.6320589189774],[-77.4381887535627,39.632179025641],[-77.4382403743521,39.6323090918373],[-77.4382742165838,39.6324527787241],[-77.438302646466,39.632531934098],[-77.4383139050514,39.6326166559082],[-77.4383285466922,39.6326390818249],[-77.4383192994347,39.6328097537793],[-77.4382370910098,39.6330094989429],[-77.4381568714549,39.6331835578852],[-77.4381518732287,39.6333728470325],[-77.4381341629428,39.6335378102833],[-77.4383249911603,39.6336574909809],[-77.4386169885434,39.6337097771956],[-77.4387898998626,39.6338156854219],[-77.4391091898607,39.634192752951],[-77.4391416810262,39.634352020565],[-77.4391318489654,39.6345123213895],[-77.4390364487805,39.6346831575256],[-77.4389565184832,39.635125639545],[-77.4389242213538,39.6354720486426],[-77.4389836619778,39.6356035157846],[-77.4389966830579,39.6356303385542],[-77.4390192729923,39.6356643436567],[-77.4390286999129,39.6356974597707],[-77.4390502819376,39.6357325696554],[-77.4390798616633,39.6357608935946],[-77.4391649680533,39.6357906737739],[-77.4392128051388,39.6358002082435],[-77.4392514821033,39.635805708792],[-77.4392912091985,39.6358120332808],[-77.4393272603875,39.6358260914648],[-77.4393586169808,39.6358539117314],[-77.4393791767227,39.6358822764374],[-77.439383970133,39.6359130257829],[-77.4393870513544,39.635930565799]],[[-77.4333201667937,39.6298158373197],[-77.4333054146601,39.6297580658133],[-77.4332857262841,39.629726716651],[-77.4332577464579,39.62969332024],[-77.4332372585812,39.6296598234922]]]},"properties":{"TRLNAME":"TR-1 Chimney Rock/Wolf Rock Trail","TRLALTNAME":null,"MAPLABEL":null,"UNITCODE":"CATO"}},{"type":"Feature","geometry":{"type":"LineString","coordinates":[[-77.4421341569855,39.6378659340399],[-77.4420345526851,39.6378465280775],[-77.4419719401098,39.6378335764693],[-77.4419377223823,39.6378161241008],[-77.4418549246625,39.6377570974572],[-77.4417635444386,39.6376893141239],[-77.4417007252508,39.6376433974376],[-77.4415921827133,39.6375580965311],[-77.4415180088203,39.6375144218452],[-77.4414466493491,39.6374663404343],[-77.4413153273326,39.6373745309479],[-77.441221161433,39.6373155475103],[-77.4411353983745,39.6372367538828],[-77.4410496910115,39.6371667493864],[-77.4409611692268,39.6371011508483],[-77.4408241222471,39.6370027695274],[-77.4405698442244,39.6367927468138],[-77.4403759159209,39.6366491796292],[-77.4403658368234,39.6366306117841],[-77.4403216648642,39.6366012698746],[-77.4402782627613,39.6365629414935],[-77.4402588762192,39.6365168206707],[-77.4401813812545,39.6364677174707],[-77.4401255868923,39.6364377784691],[-77.440058942678,39.636398258718],[-77.439993840871,39.6363407652778],[-77.4399512113192,39.636293451642],[-77.4398954169569,39.636263512565],[-77.4398063013858,39.6362138135438],[-77.4397535927365,39.6361479318465],[-77.4396861777676,39.6361173963725],[-77.4396420058085,39.6360880535534],[-77.4396086837013,39.6360682928889],[-77.4395513469317,39.636056325384],[-77.4395079466254,39.6360179967009],[-77.4394529248142,39.6359790723534],[-77.4394319958647,39.6359509228382],[-77.4393870513544,39.635930565799]]},"properties":{"TRLNAME":"TR-1 Chimney Rock/Wolf Rock Trail","TRLALTNAME":"TR-7 Thurmont Vista Trail","MAPLABEL":null,"UNITCODE":"CATO"}},{"type":"Feature","geometry":{"type":"LineString","coordinates":[[-77.4450961243611,39.6388204451228],[-77.4451408083599,39.6388238119951],[-77.445164083709,39.6388267209116],[-77.4451938862168,39.6388405937788],[-77.445212261256,39.638869945115],[-77.4452208814894,39.6388757477252],[-77.445239434395,39.6389260549789],[-77.4452577303824,39.6389454405769],[-77.4452604989901,39.6389630531521],[-77.4452723522603,39.6389766361386],[-77.4452789818271,39.6389947412488],[-77.4452836952873,39.6390324138645],[-77.4452906114167,39.6390504200366],[-77.4452897481357,39.6390677026091],[-77.4452879236574,39.6390864918592],[-77.4452968771658,39.6391195150207],[-77.4452993924486,39.6391392471425],[-77.445300302442,39.6391398372244],[-77.4453136478139,39.6391592711865],[-77.4453273884445,39.6391810066691],[-77.4453422537658,39.639214334165],[-77.4453932008188,39.6392808320767],[-77.4454002939163,39.6392931310739],[-77.445423483027,39.6393498341333],[-77.445424947281,39.6393584881805],[-77.4454691165451,39.6394354911668],[-77.4454754550578,39.6394532986961],[-77.4454858279044,39.6394715620967],[-77.4454935022119,39.639561020938],[-77.4454932991926,39.6395732991322],[-77.445487188852,39.6395874582416],[-77.4454881895753,39.6396473293547],[-77.4454907973845,39.6396512129369],[-77.4454887285644,39.6396697163285],[-77.4455065152071,39.6397119487033],[-77.4455053986011,39.6397229422601],[-77.445514450026,39.6397572109889],[-77.4455187448713,39.6397698281137],[-77.4455318683593,39.6398307221903],[-77.4455343530994,39.6398475971181],[-77.4455390387119,39.6398893638264],[-77.4455384215693,39.6398915553379],[-77.4455626311662,39.6399747649306],[-77.4455615172553,39.6399848473923],[-77.4455784891259,39.6400426954451],[-77.4455775126572,39.6400519858279],[-77.4455743595706,39.6400546027687],[-77.4455716430652,39.6400651597684],[-77.4455668200104,39.6400738337872],[-77.4455656692685,39.6400891584148],[-77.4455646290194,39.6400993653772],[-77.4455618577168,39.6401106680903],[-77.4455595355718,39.6401204530744],[-77.4455558111566,39.640127679227],[-77.4455564480621,39.6401348292852],[-77.4455600431199,39.6401588853236],[-77.4455594232823,39.6401637124409],[-77.4455609306554,39.6402002222598],[-77.4455581090471,39.6402364359856],[-77.4455608372306,39.6402411904624],[-77.4455616007986,39.6402497323328],[-77.4455597493708,39.6402624579743],[-77.4455555578317,39.6402716494057],[-77.4455513222751,39.6402855634887],[-77.445546136301,39.6402966309727],[-77.4455089370651,39.6403834171695],[-77.4455100204333,39.6403865383908],[-77.4455137960524,39.6403965958892],[-77.4455187852955,39.640410881422],[-77.4455236981818,39.6404141264671],[-77.4455495777468,39.6404175382262],[-77.4455491806915,39.6404185053062]]},"properties":{"TRLNAME":"TR-1 Chimney Rock/Wolf Rock Trail","TRLALTNAME":null,"MAPLABEL":null,"UNITCODE":"CATO"}},{"type":"Feature","geometry":{"type":"LineString","coordinates":[[-77.4415216191494,39.6264241078823],[-77.441521390079,39.6264239667347],[-77.4415067466416,39.6264959297983],[-77.4414676465705,39.626580978657],[-77.4413784546426,39.6266607198672],[-77.4413073898188,39.6267074568223],[-77.4412791162435,39.6267318046677],[-77.4411661683679,39.626782862466],[-77.4410488007811,39.6267943513995],[-77.4409811091312,39.6268148024574],[-77.4409327339548,39.626828377451],[-77.4408866144481,39.6268514964476],[-77.4408266402248,39.6268721356842],[-77.440716273209,39.6269302984451],[-77.4406513070477,39.626948402557],[-77.4405387697021,39.6269849518704],[-77.4404142605088,39.6270688329042],[-77.4403159425959,39.6271193424747],[-77.4402215305578,39.6271805791045],[-77.440129313104,39.6272037208159],[-77.4400112385431,39.6272464139908],[-77.4399580582783,39.6272641499338],[-77.4399022486446,39.6273008104749],[-77.4398105405356,39.6273352929252],[-77.4397532441901,39.6273521280041],[-77.4396604733741,39.627379194059],[-77.4396239757224,39.6274075857642],[-77.4395353218853,39.627443083855],[-77.4394729545501,39.6274676611487],[-77.4393578614976,39.6274971356238],[-77.4392995347845,39.6274999446929],[-77.4392409340853,39.6275122990602],[-77.4391590598337,39.6275451111863],[-77.4391295295153,39.627536387856],[-77.4390203455807,39.6275683371861]]},"properties":{"TRLNAME":"TR-1 Chimney Rock/Wolf Rock Trail","TRLALTNAME":"TR-2 Crows Nest Trail / Gateway Trail","MAPLABEL":"Chimney Rock/Wolf Rock Trail","UNITCODE":"CATO"}},{"type":"Feature","geometry":{"type":"LineString","coordinates":[[-77.444062465303,39.6400002633525],[-77.4440229726682,39.6399657111208],[-77.4439924281519,39.6399005884045],[-77.4439192253377,39.6397610703531],[-77.4438032492412,39.6395285161219],[-77.4436993860281,39.6393052349894],[-77.4436081630093,39.6391751030858],[-77.4434199255331,39.6389521397203],[-77.4432196344624,39.6387292206015],[-77.4430004760758,39.6383805580858],[-77.4428860989806,39.6381466619973],[-77.4428844757248,39.6381433435169]]},"properties":{"TRLNAME":"TR-1 Chimney Rock/Wolf Rock Trail","TRLALTNAME":"TR-7 Thurmont Vista Trail","MAPLABEL":null,"UNITCODE":"CATO"}},{"type":"Feature","geometry":{"type":"LineString","coordinates":[[-77.4450961243611,39.6388204451228],[-77.4450090695252,39.6388673032255],[-77.4449478286773,39.6388865110538],[-77.4448836395587,39.6389247060183],[-77.4448440391261,39.6389699259291],[-77.4447953243865,39.6390294122589],[-77.4447343817793,39.6390960611549],[-77.4446918034315,39.6391555252394],[-77.4446217312461,39.6392340690269],[-77.4445630254439,39.6392870732352],[-77.4445279058079,39.639328234291],[-77.4444857640413,39.639377628079],[-77.4444435854438,39.6394215513172],[-77.4443909315917,39.6394873973833],[-77.4443735015802,39.63952849191],[-77.4443420578503,39.6395915223786],[-77.4443140654478,39.6396408634043],[-77.4442791182883,39.6397093774061],[-77.4442581839489,39.639755955433],[-77.4442232197214,39.6398217340794],[-77.4441810932261,39.6398738634462],[-77.4441353429271,39.6399123304208],[-77.4441213804126,39.6399424712972],[-77.4440756139438,39.6399782023066],[-77.444062465303,39.6400002633525]]},"properties":{"TRLNAME":"TR-1 Chimney Rock/Wolf Rock Trail","TRLALTNAME":"TR-7 Thurmont Vista Trail","MAPLABEL":null,"UNITCODE":"CATO"}},{"type":"Feature","geometry":{"type":"LineString","coordinates":[[-77.4428844757248,39.6381433435169],[-77.4428842646207,39.6381434804898],[-77.4428806264439,39.6381458671393],[-77.4428116430165,39.6381910951689],[-77.4427476488323,39.6382460226372],[-77.4426763225988,39.6383044186512],[-77.4426336499278,39.6383242021973],[-77.4425865368844,39.6383212648966],[-77.4425641796137,39.6382891690323],[-77.4424971652935,39.6382604940117],[-77.4425107002098,39.6382315685542],[-77.4424959220251,39.638181554111],[-77.4424785773536,39.6381422477335],[-77.4424719253289,39.6381232818224],[-77.4424641566983,39.6380959716208],[-77.4424572962645,39.6380638216928],[-77.4424412882862,39.6380342410341],[-77.4424211417693,39.6380047039452],[-77.4424071846447,39.6379718767181],[-77.4423861999997,39.6379388730703],[-77.442360819898,39.6379058590301],[-77.4423254801747,39.63787574978],[-77.4422784821156,39.6378669080735],[-77.4422421569405,39.6378536098847],[-77.4421341569855,39.6378659340399]]},"properties":{"TRLNAME":"TR-1 Chimney Rock/Wolf Rock Trail","TRLALTNAME":"TR-7 Thurmont Vista Trail","MAPLABEL":null,"UNITCODE":"CATO"}},{"type":"Feature","geometry":{"type":"LineString","coordinates":[[-77.435320921544,39.6269784459902],[-77.4351974292436,39.6268322769746],[-77.4351862910324,39.6267715119099],[-77.4350502905899,39.626664755704],[-77.4349475628473,39.6266215536254],[-77.4348272451931,39.6265790371909],[-77.4346905593361,39.6265248027355],[-77.4346708673667,39.626526165084],[-77.4346104691386,39.6264810906399],[-77.4345189936932,39.6264585790071],[-77.4344584750908,39.6264135481087],[-77.4343063912115,39.6263581469796],[-77.4342607639816,39.6263550631798],[-77.4341959541272,39.6263440598875],[-77.4340719821264,39.6263085667681],[-77.4340376323465,39.6262953915913],[-77.4339601328903,39.6262352978915],[-77.4338479872103,39.6262226077238],[-77.4337408864688,39.6262283878703],[-77.4336090964302,39.626244904944],[-77.4335767400119,39.6262267030898],[-77.4333756045249,39.6262564728435],[-77.4333381322011,39.626258110574],[-77.4333107776024,39.6262671025231],[-77.4332295420529,39.6262908271206],[-77.4331756449325,39.6263009759238],[-77.4331378438253,39.6263196357966],[-77.4330979586267,39.626349518982],[-77.4330593634089,39.6263714051725]]},"properties":{"TRLNAME":"TR-1 Chimney Rock/Wolf Rock Trail","TRLALTNAME":"TR-2 Crows Nest Trail / Gateway Trail","MAPLABEL":"Chimney Rock/Wolf Rock Trail","UNITCODE":"CATO"}},{"type":"Feature","geometry":{"type":"LineString","coordinates":[[-75.1594028447133,38.1903709886769],[-75.1594075527837,38.1903212488051],[-75.1594110544167,38.1902910373005],[-75.1594179013758,38.1902719826532],[-75.1594249666255,38.1902636471259],[-75.1594446864426,38.1902470198432],[-75.1594587801111,38.1902253168208],[-75.159468820581,38.1901983806066],[-75.1594723841977,38.1901709692159],[-75.1594703593951,38.1901481280298],[-75.1594671488163,38.1901184685792],[-75.1594602605347,38.1900868131318],[-75.1594553278854,38.1900574367797],[-75.1594557851279,38.1900305527507],[-75.1594595077465,38.1900037131927],[-75.159468905921,38.189976560141],[-75.1594836212236,38.1899504371983],[-75.1595073978326,38.189930802799],[-75.15953025277,38.1899079848371],[-75.1595480079716,38.1898845377817],[-75.1595695459789,38.1898585228311],[-75.1595930279404,38.1898345236319],[-75.1596101947455,38.1898104679412],[-75.1596279059296,38.1897856659516],[-75.1596452946186,38.1897605455266],[-75.159655940553,38.1897338619053],[-75.1596656755957,38.1897068330173],[-75.159668514272,38.1896834000181],[-75.1596745931716,38.189654717548],[-75.1596904466397,38.1896275015279],[-75.1596965470988,38.1896001351094],[-75.1596986895808,38.1895724460165],[-75.1597029350188,38.1895434888499],[-75.1597077059713,38.1895183485719],[-75.159719281662,38.1894912758288],[-75.1597282962559,38.189463735671],[-75.1597401989334,38.1894359229676],[-75.1597460604406,38.1894041895582],[-75.1597429774226,38.1893719837872],[-75.1597488811506,38.1893399248606],[-75.1597537464262,38.1893070885578],[-75.1597602071097,38.1892714647498],[-75.1597671474936,38.1892356615873],[-75.1597755934539,38.1892039577447],[-75.1597836558336,38.1891687899961],[-75.159796806271,38.1891357848696],[-75.159804439256,38.1891067696329],[-75.1598103699335,38.1890768407519],[-75.1598067542145,38.1890469619885],[-75.1597938175761,38.1890142688825],[-75.1597847787277,38.1889869749572],[-75.1597775194419,38.1889599217861],[-75.1597705440237,38.1889316697244],[-75.1597695666567,38.1889045776998],[-75.159769997848,38.188877136874],[-75.1597592252511,38.1888518283249],[-75.1597407451091,38.1888267167565],[-75.1597334642637,38.1888019349075],[-75.159737499496,38.188774808944],[-75.1597515365706,38.1887488345482],[-75.1597615420062,38.1887281146161],[-75.1597680215544,38.1887030037111],[-75.1597726110472,38.1886751349388],[-75.159782126901,38.1886493003068],[-75.1597915942457,38.1886254842842],[-75.1597985481044,38.1885954408241],[-75.1598024189449,38.1885690434356],[-75.1598022859943,38.1885453403561],[-75.1597990924834,38.1885211296127],[-75.1598065709582,38.188492699454],[-75.1598230236026,38.1884673646472],[-75.1598333811778,38.18844401174],[-75.1598416088475,38.1884151077851],[-75.159844752951,38.1883887378676],[-75.1598448769185,38.1883619704287],[-75.1598356161863,38.1883362592463],[-75.1598267992217,38.1883111418517],[-75.1598180451393,38.188285868409],[-75.15983236159,38.1882607834758],[-75.1598578018788,38.1882446697484],[-75.1598880104252,38.1882241565489],[-75.1599090076466,38.1882004575936],[-75.1599193221027,38.188175042194],[-75.1599295871515,38.1881495893643],[-75.1599406768537,38.188124343402],[-75.1599542791437,38.1880989484517],[-75.1599670738483,38.1880754295016],[-75.1599766310246,38.1880502117561],[-75.159993599302,38.1880274772266],[-75.1600104463068,38.1880054847629],[-75.1600280308285,38.1879806412069],[-75.1600368639627,38.1879533617216],[-75.1600485546378,38.1879263364093],[-75.1600604240777,38.1878983741392],[-75.1600702282907,38.1878698936068],[-75.1600827579923,38.187840836208],[-75.1600888988756,38.1878127461073],[-75.1600960880928,38.187783970406],[-75.1600980212673,38.1877581382822],[-75.1601025856072,38.1877306942002],[-75.1601106785296,38.1877052383909],[-75.1601187705537,38.1876797726879],[-75.1601338730303,38.1876559881213],[-75.1601471761813,38.1876294230544],[-75.1601649619256,38.1876078512866],[-75.1601773011843,38.1875821433683],[-75.1601915098372,38.1875555592106],[-75.1602111497043,38.1875316630447],[-75.1602342400003,38.1875072274347],[-75.1602577129787,38.1874821902461],[-75.1602858059926,38.187460273167],[-75.1603150138157,38.1874339212616],[-75.1603451343272,38.1874094390183],[-75.1603796062779,38.1873882915331],[-75.1604156278225,38.1873669872943],[-75.1604441583159,38.1873400634385],[-75.1604697432335,38.1873089073875],[-75.1604922999303,38.1872757001881],[-75.1605155123972,38.1872435450193],[-75.1605412994358,38.1872174486332],[-75.1605646205989,38.1871852694322],[-75.1605916706687,38.1871553849503],[-75.1606166689864,38.1871264501231],[-75.1606433597302,38.1870992020912],[-75.1606697621147,38.1870703512642],[-75.1606984309487,38.1870423392405],[-75.16072117719,38.1870108031948],[-75.1607318410907,38.1869849870365],[-75.1607446124391,38.1869617685141],[-75.1607555602075,38.1869337190267],[-75.1607659402406,38.1869104602417],[-75.1607703437821,38.1868880063741],[-75.1607810301407,38.1868577475507],[-75.1607905253333,38.1868311532436],[-75.1607908181841,38.186805855987],[-75.1607794886317,38.1867727883612],[-75.1607717703068,38.1867478215277],[-75.1607588678043,38.186727134918],[-75.1607579506244,38.1866974013485],[-75.1607553868326,38.1866683300665],[-75.1607585659704,38.1866419432769],[-75.1607612043224,38.1866116751722],[-75.1607676227851,38.1865806339003],[-75.1607782013459,38.1865490588205],[-75.160792462101,38.186516642082],[-75.1608018009867,38.1864827489194],[-75.1608081592623,38.1864544182283],[-75.1608181170872,38.1864210362378],[-75.1608332563947,38.1863938931478],[-75.1608503486396,38.1863676700692],[-75.1608623806745,38.1863409774381],[-75.1608678873472,38.1863156849538],[-75.1608730230157,38.1862864129927],[-75.1608845277396,38.1862587169916],[-75.1608927167817,38.1862290453659],[-75.1609046580867,38.1862040938799],[-75.1609158690615,38.1861728250761],[-75.1609334014809,38.1861389091589],[-75.1609623191482,38.186113182364],[-75.160995030401,38.1860862700482],[-75.1610323257566,38.1860647408944],[-75.1610737282097,38.1860585040688],[-75.1611060001863,38.1860458849628],[-75.1611264943512,38.1860317343614],[-75.1611544687875,38.1860167357518],[-75.1611669041659,38.1860119569831],[-75.1611772644361,38.1860199710232],[-75.1611987979518,38.1860466199947],[-75.1612200862274,38.1860604818056],[-75.1612406055451,38.1860747143069],[-75.1612679619405,38.1860920909891],[-75.1612972110861,38.1861084650308],[-75.1613266183353,38.1861227801344],[-75.1613578123335,38.1861363863292],[-75.1613851363895,38.1861494438961],[-75.1614135456104,38.1861624421498],[-75.1614418164907,38.1861770403813],[-75.1614741288914,38.1861874437819],[-75.1615035271574,38.186195800958],[-75.1615228615973,38.186214622959],[-75.1615372310486,38.1862333093875],[-75.161540494628,38.1862579473639],[-75.1615476371328,38.1862829327233],[-75.1615694778723,38.1863041539617],[-75.161600502089,38.18631945189],[-75.1616353324675,38.186321476221],[-75.161672103207,38.1863280950134],[-75.1617062499676,38.1863415423019],[-75.1617305502943,38.1863584747964],[-75.1617524790687,38.1863806852299],[-75.16177539599,38.1863995438991],[-75.1617915090712,38.1864267738347],[-75.1618061516103,38.1864524948702],[-75.161817567401,38.1864803348377],[-75.161825927123,38.1865059421757],[-75.1618320680063,38.1865329602482],[-75.1618398042975,38.1865581629852],[-75.1618462344383,38.1865860120913],[-75.1618611626417,38.1866112938906],[-75.1618776045063,38.1866361619202],[-75.1618754557362,38.1866617988586],[-75.1618632754792,38.1866832212184],[-75.1618402714215,38.1867143224631],[-75.161829343416,38.1867284390402],[-75.1618167607138,38.1867512043364],[-75.1617986075586,38.1867677180329],[-75.1617679085321,38.1867797502652],[-75.1617485031253,38.1867986723779],[-75.161727019017,38.1868153131571],[-75.1617054001613,38.1868321862313],[-75.1616859525337,38.1868496573468],[-75.1616550459964,38.1868600373508],[-75.1616232339572,38.1868679771597],[-75.161596852234,38.186877624962],[-75.1615631258849,38.1868890619553],[-75.1615338210437,38.1869007531336],[-75.1615008950936,38.186913691237],[-75.1614820726935,38.1869369041261],[-75.1614693453625,38.1869616449512],[-75.1614553352374,38.1869812130739],[-75.1614288331399,38.1869962912712],[-75.1613985608131,38.1870084434982],[-75.1613667658419,38.187015699106],[-75.1613351963479,38.1870249740821],[-75.1613084256541,38.1870434124712],[-75.161299441603,38.1870704889484],[-75.1612963621782,38.1870968685221],[-75.1613171815332,38.1871199563781],[-75.1613405350356,38.1871397271008],[-75.1613512402589,38.1871669405201],[-75.1613542675814,38.1871934090239],[-75.1613598874418,38.1872167411499],[-75.1613651102469,38.1872293480498],[-75.1613761756945,38.1872408824258],[-75.1613936191807,38.1872574524969],[-75.16140344136,38.1872791599341],[-75.1614079949202,38.1872976286198],[-75.1614022178546,38.1873280623659],[-75.1614048319521,38.1873537251854],[-75.1614094394112,38.1873780153966],[-75.1614198383089,38.1874001845672],[-75.1614102784377,38.1874167913177],[-75.1613976849557,38.1874262060444],[-75.1613830289418,38.1874439149627],[-75.1613623551139,38.1874541543744],[-75.1613426379917,38.1874654910155],[-75.1613214449375,38.1874835120065],[-75.1612986286276,38.1875042683021],[-75.161278368923,38.1875200715233],[-75.1612580813707,38.1875417795882],[-75.1612315604085,38.1875630816577],[-75.1612017839518,38.1875779316747],[-75.1611754615173,38.1875949401371],[-75.1611500814156,38.1876102490914],[-75.1611209050335,38.187626907337],[-75.1611075551701,38.1876486294914],[-75.1610852751544,38.1876699816603],[-75.1610561886038,38.1876894104976],[-75.1610380192789,38.1877077541057],[-75.1610183174281,38.1877274943081],[-75.160996950999,38.1877526210828],[-75.1609781285989,38.1877773672794],[-75.1609530269749,38.1877943305071],[-75.1609286188503,38.1878165073177],[-75.1609057163022,38.1878353500818],[-75.1608809030374,38.1878505255392],[-75.16086177521,38.1878683515611],[-75.1608397637906,38.1878866626451],[-75.160815127494,38.187901455405],[-75.160787718098,38.1879127453762],[-75.1607588660077,38.1879267021506],[-75.1607330169854,38.187942526462],[-75.1607063325299,38.1879544737725],[-75.1606784254673,38.1879692114456],[-75.1606492472885,38.1879836222082],[-75.1606189201645,38.1879993582493],[-75.1605985778149,38.1880188335989],[-75.1605736531591,38.1880421478089],[-75.160549733718,38.1880620157181],[-75.1605312427962,38.1880805188025],[-75.1605106830543,38.1881054562307],[-75.1604877571499,38.1881320486604],[-75.1604674695975,38.1881478291514],[-75.1604490388628,38.1881712866507],[-75.160431941228,38.1881927834091],[-75.1604142282473,38.1882165423822],[-75.1603969770006,38.188241286303],[-75.1603826776179,38.1882674133889],[-75.1603734896491,38.188294627799],[-75.1603516866389,38.1883171807875],[-75.1603279971665,38.1883335945745],[-75.1603014591364,38.1883521674899],[-75.1602722629913,38.1883661524225],[-75.1602446640509,38.1883847676931],[-75.1602158622662,38.1884031294836],[-75.1601928743781,38.1884243373953],[-75.1601801533354,38.1884512735594],[-75.160157640656,38.1884797348009],[-75.1601415230832,38.1885057467137],[-75.1601260639755,38.188532275452],[-75.1601091693599,38.1885550585419],[-75.1600929071584,38.1885860495484],[-75.1600789895597,38.1886138385704],[-75.1600656352046,38.1886456083331],[-75.1600553027823,38.1886772206313],[-75.1600410932311,38.1887073586692],[-75.1600294474717,38.1887375143461],[-75.1600244914663,38.1887663433311],[-75.1600194519176,38.188792664394],[-75.1600038311131,38.1888116714166],[-75.1599831402172,38.1888332103494],[-75.159969246873,38.1888555937179],[-75.1599547265047,38.1888787459735],[-75.1599387769169,38.1889023974025],[-75.1599279270648,38.1889275957895],[-75.159912538924,38.1889520838771],[-75.1599036554842,38.1889760996062],[-75.1598940686635,38.1890022596131],[-75.159881000871,38.1890286780262],[-75.1598699938139,38.1890531653738],[-75.1598537576634,38.1890766374087],[-75.1598339219636,38.189094842987],[-75.1597995721838,38.1891252653914]]},"properties":{"TRLNAME":"ASIS MD Life of the Dunes Trail","TRLALTNAME":null,"MAPLABEL":"Life of the Dunes Trail","UNITCODE":"ASIS"}}]}